NORAD_CAT_ID,OBJECT_NAME,OBJECT_TYPE,EPOCH,MEAN_MOTION,ECCENTRICITY,INCLINATION,RA_OF_ASC_NODE,ARG_OF_PERICENTER,MEAN_ANOMALY,BSTAR,MEAN_MOTION_DOT,MEAN_MOTION_DDOT,TLE_LINE0,TLE_LINE1,TLE_LINE2,SEMIMAJOR_AXIS,PERIOD,APOGEE,PERIGEE,DECAYED
54166.0,STARLINK-5280,PAYLOAD,2024-06-19 14:05:38,15.08833524,0.0001435,53.2184,303.9121,91.3546,268.761,2.7465e-06,-2.44e-06,0.0,0 STARLINK-5280,1 54166U 22141K   24171.58724950 -.00000244  00000-0  27465-5 0  9997,2 54166  53.2184 303.9121 0001435  91.3546 268.7610 15.08833524 91039,6917.9,95.438,540.758,538.772,0.0
54166.0,STARLINK-5280,PAYLOAD,2024-06-19 15:41:01,15.0883531,0.0001914,53.2176,303.6135,91.8714,268.2497,-1.1661e-05,-4.74e-06,0.0,0 STARLINK-5280,1 54166U 22141K   24171.65349025 -.00000474  00000-0 -11661-4 0  9997,2 54166  53.2176 303.6135 0001914  91.8714 268.2497 15.08835310 91040,6917.895,95.438,541.084,538.436,0.0
54166.0,STARLINK-5280,PAYLOAD,2024-06-20 13:56:20,15.08971045,0.0002004,53.2186,299.4513,68.8504,291.2702,-0.0020778,-0.00033323,0.0,0 STARLINK-5280,1 54166U 22141K   24172.58079275 -.00033323  00000-0 -20778-2 0  9993,2 54166  53.2186 299.4513 0002004  68.8504 291.2702 15.08971045 91181,6917.48,95.429,540.731,537.959,0.0
54166.0,STARLINK-5280,PAYLOAD,2024-06-20 18:42:34,15.0883831,0.0001176,53.2183,298.5588,89.35,270.7626,3.1494e-05,2.13e-06,0.0,0 STARLINK-5280,1 54166U 22141K   24172.77957009  .00000213  00000-0  31494-4 0  9993,2 54166  53.2183 298.5588 0001176  89.3500 270.7626 15.08838310 91211,6917.886,95.438,540.564,538.937,0.0
54166.0,STARLINK-5280,PAYLOAD,2024-06-21 01:04:06,15.08849033,0.0001188,53.219,297.3735,93.7833,266.3295,0.00010805,1.433e-05,0.0,0 STARLINK-5280,1 54166U 22141K   24173.04452062  .00001433  00000-0  10805-3 0  9990,2 54166  53.2190 297.3735 0001188  93.7833 266.3295 15.08849033 91252,6917.853,95.437,540.54,538.896,0.0
54166.0,STARLINK-5280,PAYLOAD,2024-06-21 12:11:49,15.08829738,0.0001387,53.2186,295.2911,90.5266,269.5885,9.0713e-05,1.156e-05,0.0,0 STARLINK-5280,1 54166U 22141K   24173.50821691  .00001156  00000-0  90713-4 0  9998,2 54166  53.2186 295.2911 0001387  90.5266 269.5885 15.08829738 91324,6917.912,95.438,540.736,538.817,0.0
54166.0,STARLINK-5280,PAYLOAD,2024-06-21 13:47:13,15.08828295,0.0001522,53.2206,294.9965,98.59,261.5265,7.5479e-05,9.13e-06,0.0,0 STARLINK-5280,1 54166U 22141K   24173.57445840  .00000913  00000-0  75479-4 0  9995,2 54166  53.2206 294.9965 0001522  98.5900 261.5265 15.08828295 91338,6917.916,95.438,540.834,538.728,0.0
54166.0,STARLINK-5280,PAYLOAD,2024-06-22 12:02:36,15.0883964,0.0001346,53.219,290.831,91.3827,268.7319,7.5146e-05,9.08e-06,0.0,0 STARLINK-5280,1 54166U 22141K   24174.50181467  .00000908  00000-0  75146-4 0  9996,2 54166  53.2190 290.8310 0001346  91.3827 268.7319 15.08839640 91472,6917.881,95.438,540.678,538.815,0.0
54166.0,STARLINK-5280,PAYLOAD,2024-06-22 13:37:59,15.08839448,0.0001318,53.219,290.5339,92.9053,267.209,7.8389e-05,9.6e-06,0.0,0 STARLINK-5280,1 54166U 22141K   24174.56805488  .00000960  00000-0  78389-4 0  9998,2 54166  53.2190 290.5339 0001318  92.9053 267.2090 15.08839448 91484,6917.882,95.438,540.659,538.835,0.0
54166.0,STARLINK-5280,PAYLOAD,2024-06-22 15:13:22,15.08843244,0.0001226,53.2184,290.2362,84.0864,276.0268,8.7971e-05,1.113e-05,0.0,0 STARLINK-5280,1 54166U 22141K   24174.63429276  .00001113  00000-0  87971-4 0  9991,2 54166  53.2184 290.2362 0001226  84.0864 276.0268 15.08843244 91495,6917.87,95.437,540.584,538.887,0.0
54166.0,STARLINK-5280,PAYLOAD,2024-06-23 13:28:46,15.08842879,0.0001334,53.2181,286.0725,69.3548,290.7587,0.00015043,2.107e-05,0.0,0 STARLINK-5280,1 54166U 22141K   24175.56165233  .00002107  00000-0  15043-3 0  9998,2 54166  53.2181 286.0725 0001334  69.3548 290.7587 15.08842879 91639,6917.872,95.437,540.659,538.814,0.0
54166.0,STARLINK-5280,PAYLOAD,2024-06-23 16:39:32,15.08845952,0.0001335,53.2185,285.4778,76.97,283.1442,0.00017261,2.461e-05,0.0,0 STARLINK-5280,1 54166U 22141K   24175.69412975  .00002461  00000-0  17261-3 0  9997,2 54166  53.2185 285.4778 0001335  76.9700 283.1442 15.08845952 91652,6917.862,95.437,540.651,538.804,0.0
54166.0,STARLINK-5280,PAYLOAD,2024-06-24 13:19:33,15.08846482,0.0001418,53.2184,281.6107,115.2018,244.9121,0.0001014,1.326e-05,0.0,0 STARLINK-5280,1 54166U 22141K   24176.55524714  .00001326  00000-0  10140-3 0  9996,2 54166  53.2184 281.6107 0001418 115.2018 244.9121 15.08846482 91788,6917.861,95.437,540.707,538.745,0.0
54166.0,STARLINK-5280,PAYLOAD,2024-06-25 13:10:20,15.08842376,0.0001356,53.218,277.151,108.5038,251.6102,3.7509e-05,3.09e-06,0.0,0 STARLINK-5280,1 54166U 22141K   24177.54884949  .00000309  00000-0  37509-4 0  9994,2 54166  53.2180 277.1510 0001356 108.5038 251.6102 15.08842376 91939,6917.873,95.437,540.676,538.8,0.0
54166.0,STARLINK-5280,PAYLOAD,2024-06-26 11:25:44,15.08843644,0.0001342,53.2177,272.9893,101.4546,258.6597,9.5407e-05,1.231e-05,0.0,0 STARLINK-5280,1 54166U 22141K   24178.47620630  .00001231  00000-0  95407-4 0  9998,2 54166  53.2177 272.9893 0001342 101.4546 258.6597 15.08843644 92073,6917.869,95.437,540.663,538.806,0.0
54166.0,STARLINK-5280,PAYLOAD,2024-06-26 14:36:30,15.08845667,0.0001275,53.2168,272.3938,90.907,269.2068,0.00010455,1.377e-05,0.0,0 STARLINK-5280,1 54166U 22141K   24178.60868479  .00001377  00000-0  10455-3 0  9998,2 54166  53.2168 272.3938 0001275  90.9070 269.2068 15.08845667 92096,6917.863,95.437,540.61,538.846,0.0
54166.0,STARLINK-5280,PAYLOAD,2024-06-27 12:51:55,15.08834649,0.0001239,53.2177,268.2289,84.1134,276.0,2.9252e-05,1.78e-06,0.0,0 STARLINK-5280,1 54166U 22141K   24179.53605494  .00000178  00000-0  29252-4 0  9991,2 54166  53.2177 268.2289 0001239  84.1134 276.0000 15.08834649 92231,6917.897,95.438,540.619,538.905,0.0
54166.0,STARLINK-5280,PAYLOAD,2024-06-27 14:27:18,15.0883475,0.0001248,53.2178,267.9316,84.0483,276.0651,2.5333e-05,1.15e-06,0.0,0 STARLINK-5280,1 54166U 22141K   24179.60229491  .00000115  00000-0  25333-4 0  9995,2 54166  53.2178 267.9316 0001248  84.0483 276.0651 15.08834750 92241,6917.896,95.438,540.625,538.898,0.0
54166.0,STARLINK-5280,PAYLOAD,2024-06-28 12:42:41,15.08846572,0.0001065,53.2165,263.7703,96.5582,263.5532,2.5462e-05,1.18e-06,0.0,0 STARLINK-5280,1 54166U 22141K   24180.52964957  .00000118  00000-0  25462-4 0  9997,2 54166  53.2165 263.7703 0001065  96.5582 263.5532 15.08846572 92385,6917.86,95.437,540.462,538.989,0.0
54166.0,STARLINK-5280,PAYLOAD,2024-06-28 22:14:59,15.08857095,0.0001189,53.2165,261.9863,76.7478,283.3647,0.00018632,2.68e-05,0.0,0 STARLINK-5280,1 54166U 22141K   24180.92707647  .00002680  00000-0  18632-3 0  9998,2 54166  53.2165 261.9863 0001189  76.7478 283.3647 15.08857095 92449,6917.828,95.436,540.516,538.871,0.0
54166.0,STARLINK-5280,PAYLOAD,2024-06-29 12:33:30,15.08818141,0.0001316,53.216,259.3123,88.9935,271.1208,-0.00014731,-2.63e-05,0.0,0 STARLINK-5280,1 54166U 22141K   24181.52326663 -.00002630  00000-0 -14731-3 0  9993,2 54166  53.2160 259.3123 0001316  88.9935 271.1208 15.08818141 92536,6917.947,95.439,540.723,538.902,0.0
54166.0,STARLINK-5280,PAYLOAD,2024-06-29 22:05:48,15.088295,0.0001344,53.2165,257.5271,79.1473,280.967,1.6661e-05,-2.3e-07,0.0,0 STARLINK-5280,1 54166U 22141K   24181.92070481 -.00000023  00000-0  16661-4 0  9999,2 54166  53.2165 257.5271 0001344  79.1473 280.9670 15.08829500 92593,6917.912,95.438,540.707,538.848,0.0
54166.0,STARLINK-5280,PAYLOAD,2024-06-30 10:48:53,15.08841503,0.0001291,53.2158,255.148,78.8938,281.2199,0.000231,3.391e-05,0.0,0 STARLINK-5280,1 54166U 22141K   24182.45062162  .00003391  00000-0  23100-3 0  9990,2 54166  53.2158 255.1480 0001291  78.8938 281.2199 15.08841503 92670,6917.876,95.437,540.634,538.848,0.0
54166.0,STARLINK-5280,PAYLOAD,2024-06-30 13:59:40,15.08848593,0.0001349,53.2153,254.5527,71.1579,288.9559,0.00099684,0.00015616,0.0,0 STARLINK-5280,1 54166U 22141K   24182.58310441  .00015616  00000-0  99684-3 0  9993,2 54166  53.2153 254.5527 0001349  71.1579 288.9559 15.08848593 92693,6917.854,95.437,540.652,538.786,0.0
54166.0,STARLINK-5280,PAYLOAD,2024-06-30 21:56:35,15.08863582,0.000133,53.215,253.0654,70.3405,289.773,0.0010188,0.00015974,0.0,0 STARLINK-5280,1 54166U 22141K   24182.91429978  .00015974  00000-0  10188-2 0  9994,2 54166  53.2150 253.0654 0001330  70.3405 289.7730 15.08863582 92745,6917.808,95.436,540.593,538.753,0.0
54166.0,STARLINK-5280,PAYLOAD,2024-07-01 12:15:03,15.08845098,0.0001212,53.2149,250.3893,74.1248,285.9877,0.0011231,0.00017634,0.0,0 STARLINK-5280,1 54166U 22141K   24183.51046179  .00017634  00000-0  11231-2 0  9994,2 54166  53.2149 250.3893 0001212  74.1248 285.9877 15.08845098 92836,6917.865,95.437,540.568,538.891,0.0
54166.0,STARLINK-5280,PAYLOAD,2024-07-01 21:47:22,15.08853235,0.0001216,53.2148,248.605,75.3486,284.7641,0.0011687,0.00018368,0.0,0 STARLINK-5280,1 54166U 22141K   24183.90790040  .00018368  00000-0  11687-2 0  9990,2 54166  53.2148 248.6050 0001216  75.3486 284.7641 15.08853235 92895,6917.84,95.437,540.546,538.864,0.0
54166.0,STARLINK-5280,PAYLOAD,2024-07-02 04:08:55,15.08840399,0.0001414,53.2144,247.415,84.7093,275.406,0.00046135,7.062e-05,0.0,0 STARLINK-5280,1 54166U 22141K   24184.17286246  .00007062  00000-0  46135-3 0  9994,2 54166  53.2144 247.4150 0001414  84.7093 275.4060 15.08840399 92931,6917.879,95.438,540.722,538.766,0.0
54166.0,STARLINK-5280,PAYLOAD,2024-07-02 13:41:14,15.08842398,0.0001239,53.2145,245.6303,85.1388,274.9745,0.00040252,6.124e-05,0.0,0 STARLINK-5280,1 54166U 22141K   24184.57030219  .00006124  00000-0  40252-3 0  9997,2 54166  53.2145 245.6303 0001239  85.1388 274.9745 15.08842398 92990,6917.873,95.437,540.595,538.881,0.0
54166.0,STARLINK-5280,PAYLOAD,2024-07-03 10:21:14,15.0884265,0.0001293,53.2135,241.7648,83.2076,276.9064,0.00020668,3.003e-05,0.0,0 STARLINK-5280,1 54166U 22141K   24185.43142335  .00003003  00000-0  20668-3 0  9998,2 54166  53.2135 241.7648 0001293  83.2076 276.9064 15.08842650 93124,6917.872,95.437,540.632,538.843,0.0
